{
  "last_updated": "2026-05-08T06:00:03.163636",
  "satellites": {
    "98592": {
      "name": "DUTHSat-2",
      "norad_id": "98592",
      "tle": "1 64530U 25135C   26127.81305694  .00009829  00000-0  38518-3 0  9994\n2 64530  97.4573 243.7829 0003921 345.2668  14.8455 15.25974158 48779",
      "epoch": "2026-05-07T19:30:48.119616",
      "fetched_at": "2026-05-08T06:00:03.321171",
      "source": "satnogs"
    },
    "98530": {
      "name": "LAMARR",
      "norad_id": "98530",
      "tle": "1 66673U 25276H   26026.90917087  .00034524  00000-0  16680-2 0  9998\n2 66673  97.4301 102.8338 0007597 141.5941 218.5835 15.18529012  8972",
      "epoch": "2026-01-26T21:49:12.363168",
      "fetched_at": "2026-01-28T06:00:02.884758",
      "source": "satnogs",
      "note": "Using previous TLE (fetch/manual failed today)"
    },
    "98529": {
      "name": "DIRAC",
      "norad_id": "98529",
      "tle": "1 66681U 25276R   26026.63281774  .00024563  00000-0  11745-2 0  9993\n2 66681  97.4280 102.5712 0006320 148.4115 211.7500 15.18972786  8932",
      "epoch": "2026-01-26T15:11:15.452736",
      "fetched_at": "2026-01-28T06:00:02.937152",
      "source": "satnogs",
      "note": "Using previous TLE (fetch/manual failed today)"
    },
    "98518": {
      "name": "MICE-1",
      "norad_id": "98518",
      "tle": "1 66684U 25276U   26127.79888102  .00003310  00000-0  16181-3 0  9990\n2 66684  97.4274 202.1068 0006920 126.4827 233.7046 15.18903023 24284",
      "epoch": "2026-05-07T19:10:23.320128",
      "fetched_at": "2026-05-08T06:00:03.507937",
      "source": "satnogs"
    },
    "68416": {
      "name": "PeakSat",
      "norad_id": "68416",
      "tle": "1 68416U 26067A   26127.84775815  .00005606  00000-0  27134-3 0  9996\n2 68416  97.4522  86.9550 0003970  72.5550 287.6118 15.18968171  5827",
      "epoch": "2026-05-07T20:20:46.304160",
      "fetched_at": "2026-05-08T06:00:03.633712",
      "source": "satnogs"
    },
    "98370": {
      "name": "OptiSat",
      "norad_id": "98370",
      "tle": "1 69696U 69696    26089.46895426  .00000000  00000-0  00000-0 0 00004\n2 69696 097.4414 038.3720 0003145 156.7651 191.1423 15.18459822000011",
      "epoch": "2026-03-30T11:15:17.648064",
      "fetched_at": "2026-04-17T12:47:18.541523",
      "source": "manual"
    },
    "68468": {
      "name": "ERMIS-1",
      "norad_id": "68468",
      "tle": "1 68468U 26067BE  26127.83145773  .00007138  00000-0  36374-3 0  9994\n2 68468  97.4534  86.8323 0006560 178.7953 181.3297 15.17058397  5814",
      "epoch": "2026-05-07T19:57:17.947872",
      "fetched_at": "2026-05-08T06:00:03.694707",
      "source": "satnogs"
    },
    "68420": {
      "name": "ERMIS-2",
      "norad_id": "68420",
      "tle": "1 68420U 26067E   26127.84876979  .00007678  00000-0  36965-3 0  9997\n2 68420  97.4461  86.9259 0003191  68.9917 291.1658 15.19035274  5820",
      "epoch": "2026-05-07T20:22:13.709856",
      "fetched_at": "2026-05-08T06:00:03.753448",
      "source": "satnogs"
    },
    "98367": {
      "name": "ERMIS-3",
      "norad_id": "98367",
      "tle": "1 68425U 26067K   26127.86034478  .00003906  00000-0  19323-3 0  9993\n2 68425  97.4568  86.9596 0003474 101.2163 258.9462 15.18394699  5827",
      "epoch": "2026-05-07T20:38:53.788992",
      "fetched_at": "2026-05-08T06:00:03.848298",
      "source": "satnogs"
    }
  },
  "fetch_log": []
}